0 COSMOS 2251 DEB
1 33845U 93036CN  13281.85372372  .00008519  00000-0  26270-2 0  3374
2 33845 074.0561 163.4549 0068865 241.2561 199.7661 14.40157201243153
0 COSMOS 2251 DEB
1 33845U 93036CN  13282.75358462  .00010257  00000-0  31588-2 0  3389
2 33845 074.0563 161.7935 0068682 239.2851 185.2791 14.40185583243283
0 COSMOS 2251 DEB
1 33845U 93036CN  13283.80084791  .00012114  00000-0  37275-2 0  3391
2 33845 074.0566 159.8599 0068517 237.0307 215.0786 14.40201064243435
0 COSMOS 2251 DEB
1 33845U 93036CN  13286.10658505  .00009713  00000-0  29897-2 0  3412
2 33845 074.0571 155.6031 0068275 231.9845 290.0691 14.40239027243761
0 COSMOS 2251 DEB
1 33845U 93036CN  13287.75552748  .00012872  00000-0  39557-2 0  3421
2 33845 074.0569 152.5584 0068142 228.4192 199.7981 14.40267884244003
0 COSMOS 2251 DEB
1 33845U 93036CN  13289.15948730  .00013099  00000-0  40232-2 0  3432
2 33845 074.0567 149.9664 0067929 225.3491 279.5032 14.40300362244205
0 COSMOS 2251 DEB
1 33845U 93036CN  13290.33422580  .00013225  00000-0  40605-2 0  3440
2 33845 074.0564 147.7972 0067779 222.7594 250.7977 14.40319703244374
0 COSMOS 2251 DEB
1 33845U 93036CN  13291.71426822  .00011004  00000-0  33790-2 0  3457
2 33845 074.0559 145.2487 0067761 219.7818 206.6987 14.40349429244579
0 COSMOS 2251 DEB
1 33845U 93036CN  13293.11849977  .00010629  00000-0  32629-2 0  3466
2 33845 074.0559 142.6557 0067659 216.7435 288.1708 14.40373148244779
0 COSMOS 2251 DEB
1 33845U 93036CN  13294.70115556  .00012885  00000-0  39506-2 0  3479
2 33845 074.0561 139.7326 0067562 213.3176 214.9821 14.40399908245003
0 COSMOS 2251 DEB
1 33845U 93036CN  13295.74630571  .00012338  00000-0  37824-2 0  3488
2 33845 074.0564 137.8025 0067496 211.0540 234.6626 14.40418071245158
